[
    {
        "Altitude(m)": 605459.0141087752,
        "Argument of Periapsis(deg)": 0.0,
        "Eccentricity": 0.0,
        "Inclination(deg)": 60.0,
        "Latitude(deg)": 27.98816630726644,
        "Longitude(deg)": -32.201461172611836,
        "Mean Anomaly(deg)": 32.72730000000001,
        "RAAN(deg)": 50.0,
        "Satellite Name": "Test1 222",
        "Satellite Number": 222,
        "Semi-Major Axis(m)": 6980739.136638005,
        "Time(s)": 0
    },
    {
        "Altitude(m)": 605535.8051221016,
        "Argument of Periapsis(deg)": 0.00010418945913296404,
        "Eccentricity": 0.0,
        "Inclination(deg)": 60.0,
        "Latitude(deg)": 28.50129636534937,
        "Longitude(deg)": -31.844517251744993,
        "Mean Anomaly(deg)": 33.34740614546182,
        "RAAN(deg)": 49.99957995086026,
        "Satellite Name": "Test1 222",
        "Satellite Number": 222,
        "Semi-Major Axis(m)": 6980739.136638005,
        "Time(s)": 10
    }
]